NORAD_CAT_ID,OBJECT_NAME,OBJECT_TYPE,EPOCH,MEAN_MOTION,ECCENTRICITY,INCLINATION,RA_OF_ASC_NODE,ARG_OF_PERICENTER,MEAN_ANOMALY,BSTAR,MEAN_MOTION_DOT,MEAN_MOTION_DDOT,TLE_LINE0,TLE_LINE1,TLE_LINE2,SEMIMAJOR_AXIS,PERIOD,APOGEE,PERIGEE,DECAYED
53577.0,STARLINK-4553,PAYLOAD,2024-02-19 08:21:54,15.0883667,0.00013,53.2164,177.7942,87.3454,272.7686,6.0676e-05,6.78e-06,0.0,0 STARLINK-4553,1 53577U 22101BC  24050.34854705  .00000678  00000-0  60676-4 0  9990,2 53577  53.2164 177.7942 0001300  87.3454 272.7686 15.08836670 83320,6917.891,95.438,540.655,538.856,0.0
53577.0,STARLINK-4553,PAYLOAD,2024-02-19 14:43:27,15.08838151,0.0001323,53.2163,176.6045,92.7108,267.4036,0.00010887,1.445e-05,0.0,0 STARLINK-4553,1 53577U 22101BC  24050.61350827  .00001445  00000-0  10887-3 0  9997,2 53577  53.2163 176.6045 0001323  92.7108 267.4036 15.08838151 84183,6917.886,95.438,540.666,538.836,0.0
53577.0,STARLINK-4553,PAYLOAD,2024-02-20 11:23:28,15.08839853,0.0001245,53.2154,172.7382,94.0815,266.0319,0.00015526,2.184e-05,0.0,0 STARLINK-4553,1 53577U 22101BC  24051.47462984  .00002184  00000-0  15526-3 0  9996,2 53577  53.2154 172.7382 0001245  94.0815 266.0319 15.08839853 83499,6917.881,95.438,540.607,538.885,0.0
53577.0,STARLINK-4553,PAYLOAD,2024-02-20 14:34:14,15.08840859,0.000107,53.2169,172.1445,85.9746,274.1369,0.00020452,2.969e-05,0.0,0 STARLINK-4553,1 53577U 22101BC  24051.60710973  .00002969  00000-0  20452-3 0  9990,2 53577  53.2169 172.1445 0001070  85.9746 274.1369 15.08840859 84334,6917.878,95.438,540.483,539.003,0.0
53577.0,STARLINK-4553,PAYLOAD,2024-02-21 14:25:00,15.08848064,0.0001186,53.2171,167.6842,87.6838,272.429,0.00029318,4.382e-05,0.0,0 STARLINK-4553,1 53577U 22101BC  24052.60070571  .00004382  00000-0  29318-3 0  9995,2 53577  53.2171 167.6842 0001186  87.6838 272.4290 15.08848064 84482,6917.856,95.437,540.541,538.9,0.0
53577.0,STARLINK-4553,PAYLOAD,2024-02-22 11:05:02,15.08836814,0.0001008,53.2149,163.8177,72.5607,287.5495,7.1748e-05,8.54e-06,0.0,0 STARLINK-4553,1 53577U 22101BC  24053.46183187  .00000854  00000-0  71748-4 0  9993,2 53577  53.2149 163.8177 0001008  72.5607 287.5495 15.08836814 83793,6917.89,95.438,540.452,539.058,0.0
53577.0,STARLINK-4553,PAYLOAD,2024-02-22 14:15:48,15.08844349,0.0001265,53.2161,163.2237,90.121,269.9927,0.00012936,1.772e-05,0.0,0 STARLINK-4553,1 53577U 22101BC  24053.59430787  .00001772  00000-0  12936-3 0  9991,2 53577  53.2161 163.2237 0001265  90.1210 269.9927 15.08844349 84639,6917.867,95.437,540.607,538.857,0.0
53577.0,STARLINK-4553,PAYLOAD,2024-02-23 14:06:35,15.0884434,0.000137,53.2173,158.7653,96.3281,263.7867,4.6978e-05,4.6e-06,0.0,0 STARLINK-4553,1 53577U 22101BC  24054.58790690  .00000460  00000-0  46978-4 0  9990,2 53577  53.2173 158.7653 0001370  96.3281 263.7867 15.08844340 84788,6917.867,95.437,540.68,538.784,0.0
53577.0,STARLINK-4553,PAYLOAD,2024-02-23 23:38:54,15.08838184,0.0001305,53.2172,156.9813,93.1034,267.0107,-4.0154e-05,-9.27e-06,0.0,0 STARLINK-4553,1 53577U 22101BC  24054.98534885 -.00000927  00000-0 -40154-4 0  9996,2 53577  53.2172 156.9813 0001305  93.1034 267.0107 15.08838184 84024,6917.886,95.438,540.654,538.848,0.0
53577.0,STARLINK-4553,PAYLOAD,2024-02-24 12:22:00,15.0883251,0.0001452,53.218,154.6025,100.0642,260.0514,6.0554e-05,6.76e-06,0.0,0 STARLINK-4553,1 53577U 22101BC  24055.51527934  .00000676  00000-0  60554-4 0  9998,2 53577  53.2180 154.6025 0001452 100.0642 260.0514 15.08832510 84100,6917.903,95.438,540.773,538.764,0.0
53577.0,STARLINK-4553,PAYLOAD,2024-02-24 13:57:23,15.08835304,0.0001375,53.2185,154.3052,92.9679,267.1471,8.3618e-05,1.043e-05,0.0,0 STARLINK-4553,1 53577U 22101BC  24055.58151756  .00001043  00000-0  83618-4 0  9995,2 53577  53.2185 154.3052 0001375  92.9679 267.1471 15.08835304 84930,6917.895,95.438,540.711,538.809,0.0
53577.0,STARLINK-4553,PAYLOAD,2024-02-25 12:12:46,15.08848233,0.0001518,53.2179,150.1417,91.1572,268.9594,0.00016863,2.397e-05,0.0,0 STARLINK-4553,1 53577U 22101BC  24056.50886835  .00002397  00000-0  16863-3 0  9991,2 53577  53.2179 150.1417 0001518  91.1572 268.9594 15.08848233 84259,6917.855,95.437,540.77,538.67,0.0
53577.0,STARLINK-4553,PAYLOAD,2024-02-25 13:48:09,15.0885181,0.0001489,53.2181,149.8442,91.6297,268.4866,0.00020817,3.028e-05,0.0,0 STARLINK-4553,1 53577U 22101BC  24056.57510555  .00003028  00000-0  20817-3 0  9997,2 53577  53.2181 149.8442 0001489  91.6297 268.4866 15.08851810 85085,6917.844,95.437,540.739,538.679,0.0
53577.0,STARLINK-4553,PAYLOAD,2024-02-25 23:20:28,15.08845327,0.0001709,53.2192,148.0583,69.3957,290.7218,-0.0001414,-2.538e-05,0.0,0 STARLINK-4553,1 53577U 22101BC  24056.97255107 -.00002538  00000-0 -14140-3 0  9999,2 53577  53.2192 148.0583 0001709  69.3957 290.7218 15.08845327 84325,6917.864,95.437,540.911,538.547,0.0
53577.0,STARLINK-4553,PAYLOAD,2024-02-26 12:03:35,15.08828296,0.0001991,53.2177,145.6803,74.4779,285.6433,8.7643e-06,-1.49e-06,0.0,0 STARLINK-4553,1 53577U 22101BC  24057.50249045 -.00000149  00000-0  87643-5 0  9998,2 53577  53.2177 145.6803 0001991  74.4779 285.6433 15.08828296 84405,6917.916,95.438,541.159,538.404,0.0
53577.0,STARLINK-4553,PAYLOAD,2024-02-26 13:38:58,15.08829406,0.0001645,53.2172,145.38,75.4339,284.6836,-1.7056e-05,-5.59e-06,0.0,0 STARLINK-4553,1 53577U 22101BC  24057.56872925 -.00000559  00000-0 -17056-4 0  9999,2 53577  53.2172 145.3800 0001645  75.4339 284.6836 15.08829406 85235,6917.913,95.438,540.916,538.64,0.0
53577.0,STARLINK-4553,PAYLOAD,2024-02-26 15:14:21,15.08832696,0.0001543,53.2163,145.0827,76.2597,283.8567,1.9444e-05,2.1e-07,0.0,0 STARLINK-4553,1 53577U 22101BC  24057.63496629  .00000021  00000-0  19444-4 0  9995,2 53577  53.2163 145.0827 0001543  76.2597 283.8567 15.08832696 85241,6917.903,95.438,540.835,538.7,0.0
53577.0,STARLINK-4553,PAYLOAD,2024-02-27 11:54:20,15.08853453,0.0001454,53.2145,141.2176,73.4535,286.6617,0.00019057,2.747e-05,0.0,0 STARLINK-4553,1 53577U 22101BC  24058.49607398  .00002747  00000-0  19057-3 0  9993,2 53577  53.2145 141.2176 0001454  73.4535 286.6617 15.08853453 84552,6917.839,95.437,540.71,538.698,0.0
53577.0,STARLINK-4553,PAYLOAD,2024-02-27 23:02:02,15.08850556,0.0001295,53.2144,139.1385,79.1818,280.9319,0.00015877,2.241e-05,0.0,0 STARLINK-4553,1 53577U 22101BC  24058.95975403  .00002241  00000-0  15877-3 0  9994,2 53577  53.2144 139.1385 0001295  79.1818 280.9319 15.08850556 84624,6917.848,95.437,540.609,538.817,0.0
53577.0,STARLINK-4553,PAYLOAD,2024-02-28 11:45:08,15.0884039,0.0001833,53.2172,136.7582,79.5675,280.5524,0.0001991,2.882e-05,0.0,0 STARLINK-4553,1 53577U 22101BC  24059.48968168  .00002882  00000-0  19910-3 0  9996,2 53577  53.2172 136.7582 0001833  79.5675 280.5524 15.08840390 84708,6917.879,95.438,541.012,538.476,0.0
53577.0,STARLINK-4553,PAYLOAD,2024-02-28 14:55:54,15.08843138,0.0001598,53.2172,136.1629,82.2787,277.8387,0.00012469,1.697e-05,0.0,0 STARLINK-4553,1 53577U 22101BC  24059.62215908  .00001697  00000-0  12469-3 0  9994,2 53577  53.2172 136.1629 0001598  82.2787 277.8387 15.08843138 85549,6917.871,95.437,540.841,538.63,0.0
53577.0,STARLINK-4553,PAYLOAD,2024-02-29 11:35:54,15.08850032,0.000153,53.2179,132.2968,78.8792,281.2372,1.9651e-06,-2.57e-06,0.0,0 STARLINK-4553,1 53577U 22101BC  24060.48327418 -.00000257  00000-0  19651-5 0  9994,2 53577  53.2179 132.2968 0001530  78.8792 281.2372 15.08850032 85670,6917.85,95.437,540.773,538.656,0.0
53577.0,STARLINK-4553,PAYLOAD,2024-02-29 21:08:14,15.08844417,0.0001533,53.2174,130.5129,77.4721,282.6443,-6.3289e-05,-1.295e-05,0.0,0 STARLINK-4553,1 53577U 22101BC  24060.88071763 -.00001295  00000-0 -63289-4 0  9996,2 53577  53.2174 130.5129 0001533  77.4721 282.6443 15.08844417 85736,6917.867,95.437,540.792,538.671,0.0
53577.0,STARLINK-4553,PAYLOAD,2024-03-01 14:37:28,15.08843114,0.0001553,53.218,127.2442,81.8561,278.2607,3.3668e-05,2.48e-06,0.0,0 STARLINK-4553,1 53577U 22101BC  24061.60935724  .00000248  00000-0  33668-4 0  9996,2 53577  53.2180 127.2442 0001553  81.8561 278.2607 15.08843114 85845,6917.871,95.437,540.81,538.662,0.0
53577.0,STARLINK-4553,PAYLOAD,2024-03-02 09:42:06,15.08841177,0.0001434,53.2166,123.6721,75.4624,284.6528,2.954e-05,1.82e-06,0.0,0 STARLINK-4553,1 53577U 22101BC  24062.40423830  .00000182  00000-0  29540-4 0  9996,2 53577  53.2166 123.6721 0001434  75.4624 284.6528 15.08841177 85149,6917.877,95.437,540.734,538.75,0.0
53577.0,STARLINK-4553,PAYLOAD,2024-03-03 11:08:16,15.08836765,0.0001516,53.2168,118.9129,60.2332,299.8811,1.6468e-05,-2.6e-07,0.0,0 STARLINK-4553,1 53577U 22101BC  24063.46408391 -.00000026  00000-0  16468-4 0  9991,2 53577  53.2168 118.9129 0001516  60.2332 299.8811 15.08836765 85307,6917.89,95.438,540.804,538.707,0.0
53577.0,STARLINK-4553,PAYLOAD,2024-03-04 12:34:25,15.08857411,0.0001561,53.2166,114.1586,82.0547,278.0622,0.00022668,3.323e-05,0.0,0 STARLINK-4553,1 53577U 22101BC  24064.52390416  .00003323  00000-0  22668-3 0  9997,2 53577  53.2166 114.1586 0001561  82.0547 278.0622 15.08857411 86288,6917.827,95.436,540.772,538.612,0.0
53577.0,STARLINK-4553,PAYLOAD,2024-03-04 20:31:22,15.08832655,0.0001833,53.2162,112.6731,83.4176,276.7025,-2.1414e-05,-6.29e-06,0.0,0 STARLINK-4553,1 53577U 22101BC  24064.85512320 -.00000629  00000-0 -21414-4 0  9990,2 53577  53.2162 112.6731 0001833  83.4176 276.7025 15.08832655 85514,6917.903,95.438,541.036,538.5,0.0
53577.0,STARLINK-4553,PAYLOAD,2024-03-05 12:25:14,15.08827222,0.0001707,53.2158,109.6983,90.6171,269.5016,-4.9068e-05,-1.069e-05,0.0,0 STARLINK-4553,1 53577U 22101BC  24065.51753023 -.00001069  00000-0 -49068-4 0  9995,2 53577  53.2158 109.6983 0001707  90.6171 269.5016 15.08827222 86435,6917.919,95.438,540.965,538.604,0.0
53577.0,STARLINK-4553,PAYLOAD,2024-03-06 09:05:15,15.08847009,0.0001626,53.2159,105.8315,98.3302,261.7874,0.0010408,0.00016318,0.0,0 STARLINK-4553,1 53577U 22101BC  24066.37865299  .00016318  00000-0  10408-2 0  9994,2 53577  53.2159 105.8315 0001626  98.3302 261.7874 15.08847009 85748,6917.859,95.437,540.849,538.599,0.0
